NORAD_CAT_ID,OBJECT_NAME,OBJECT_TYPE,EPOCH,MEAN_MOTION,ECCENTRICITY,INCLINATION,RA_OF_ASC_NODE,ARG_OF_PERICENTER,MEAN_ANOMALY,BSTAR,MEAN_MOTION_DOT,MEAN_MOTION_DDOT,TLE_LINE0,TLE_LINE1,TLE_LINE2,SEMIMAJOR_AXIS,PERIOD,APOGEE,PERIGEE,DECAYED
56814.0,STARLINK-6059,PAYLOAD,2023-10-27 21:13:25,14.98336042,0.0002584,70.0007,2.2859,284.4544,75.6328,-3.1419e-05,-4.68e-06,0.0,0 STARLINK-6059,1 56814U 23078AZ  23300.88432362 -.00000468  00000-0 -31419-4 0  9990,2 56814  70.0007   2.2859 0002584 284.4544  75.6328 14.98336042 23293,6950.174,96.107,573.835,570.243,0.0
56814.0,STARLINK-6059,PAYLOAD,2023-10-28 08:26:22,14.98320381,0.0002712,70.0002,1.1121,265.6276,94.4573,-9.1823e-05,-1.188e-05,0.0,0 STARLINK-6059,1 56814U 23078AZ  23301.35165435 -.00001188  00000-0 -91823-4 0  9992,2 56814  70.0002   1.1121 0002712 265.6276  94.4573 14.98320381 23621,6950.223,96.108,573.973,570.203,0.0
56814.0,STARLINK-6059,PAYLOAD,2023-10-28 13:14:47,14.98318375,0.0002684,70.0002,0.6067,265.7737,94.3116,-8.5131e-05,-1.108e-05,0.0,0 STARLINK-6059,1 56814U 23078AZ  23301.55193672 -.00001108  00000-0 -85131-4 0  9995,2 56814  70.0002   0.6067 0002684 265.7737  94.3116 14.98318375 23391,6950.229,96.108,573.959,570.228,0.0
56814.0,STARLINK-6059,PAYLOAD,2023-10-28 21:15:27,14.98328958,0.0002538,70.0002,359.7659,277.7797,82.3074,-1.7536e-06,-1.14e-06,0.0,0 STARLINK-6059,1 56814U 23078AZ  23301.88573000 -.00000114  00000-0 -17536-5 0  9999,2 56814  70.0002 359.7659 0002538 277.7797  82.3074 14.98328958 23447,6950.196,96.107,573.825,570.297,0.0
56814.0,STARLINK-6059,PAYLOAD,2023-10-29 11:40:40,14.98314812,0.0002998,69.9996,358.2474,254.6123,105.4705,-0.00016717,-2.086e-05,0.0,0 STARLINK-6059,1 56814U 23078AZ  23302.48657781 -.00002086  00000-0 -16717-3 0  9993,2 56814  69.9996 358.2474 0002998 254.6123 105.4705 14.98314812 23792,6950.24,96.108,574.189,570.021,0.0
56814.0,STARLINK-6059,PAYLOAD,2023-10-29 13:16:48,14.98308664,0.0002859,69.9997,358.0791,254.3254,105.759,-0.000245,-3.013e-05,0.0,0 STARLINK-6059,1 56814U 23078AZ  23302.55334428 -.00003013  00000-0 -24500-3 0  9991,2 56814  69.9997 358.0791 0002859 254.3254 105.7590 14.98308664 23547,6950.259,96.108,574.111,570.137,0.0
56814.0,STARLINK-6059,PAYLOAD,2023-10-29 21:17:29,14.9831418,0.0003004,70.0015,357.2369,270.1953,89.8861,-0.0001735,-2.162e-05,0.0,0 STARLINK-6059,1 56814U 23078AZ  23302.88714232 -.00002162  00000-0 -17350-3 0  9991,2 56814  70.0015 357.2369 0003004 270.1953  89.8861 14.98314180 23596,6950.242,96.108,574.195,570.019,0.0
56814.0,STARLINK-6059,PAYLOAD,2023-10-29 22:53:37,14.98317701,0.0003088,70.0002,357.0699,266.5439,93.5367,-0.00020887,-2.584e-05,0.0,0 STARLINK-6059,1 56814U 23078AZ  23302.95390105 -.00002584  00000-0 -20887-3 0  9995,2 56814  70.0002 357.0699 0003088 266.5439  93.5367 14.98317701 23861,6950.231,96.108,574.242,569.95,0.0
56814.0,STARLINK-6059,PAYLOAD,2023-10-30 11:42:38,14.98363986,0.0003487,70.0004,355.7229,245.9822,114.0973,0.0002102,2.418e-05,0.0,0 STARLINK-6059,1 56814U 23078AZ  23303.48794475  .00002418  00000-0  21020-3 0  9996,2 56814  70.0004 355.7229 0003487 245.9822 114.0973 14.98363986 23944,6950.088,96.105,574.376,569.529,0.0
56814.0,STARLINK-6059,PAYLOAD,2023-10-30 13:18:53,14.98267321,0.000338,70.0003,355.5548,251.3545,108.7247,-0.00086777,-0.00010415,0.0,0 STARLINK-6059,1 56814U 23078AZ  23303.55478878 -.00010415  00000-0 -86777-3 0  9998,2 56814  70.0003 355.5548 0003380 251.3545 108.7247 14.98267321 23951,6950.387,96.111,574.601,569.902,0.0
56814.0,STARLINK-6059,PAYLOAD,2023-10-30 21:19:31,14.983045,0.0003082,70.0006,354.713,265.908,94.1727,-0.00056351,-6.806e-05,0.0,0 STARLINK-6059,1 56814U 23078AZ  23303.88856229 -.00006806  00000-0 -56351-3 0  9998,2 56814  70.0006 354.7130 0003082 265.9080  94.1727 14.98304500 23745,6950.272,96.109,574.279,569.995,0.0
56814.0,STARLINK-6059,PAYLOAD,2023-10-31 05:20:15,14.98253662,0.0002258,70.0003,353.8716,245.6017,114.4907,-0.0010304,-0.00012341,0.0,0 STARLINK-6059,1 56814U 23078AZ  23304.22240419 -.00012341  00000-0 -10304-2 0  9993,2 56814  70.0003 353.8716 0002258 245.6017 114.4907 14.98253662 24054,6950.429,96.112,573.863,570.725,0.0
56814.0,STARLINK-6059,PAYLOAD,2023-10-31 13:20:43,14.98397264,0.0003107,70.0002,353.0295,251.5309,108.5513,0.0012219,0.00014542,0.0,0 STARLINK-6059,1 56814U 23078AZ  23304.55606075  .00014542  00000-0  12219-2 0  9993,2 56814  70.0002 353.0295 0003107 251.5309 108.5513 14.98397264 24101,6949.985,96.103,574.009,569.691,0.0
56814.0,STARLINK-6059,PAYLOAD,2023-10-31 13:20:48,14.98344205,0.0003222,69.999,353.0296,266.1619,93.9172,6.433e-05,6.75e-06,0.0,0 STARLINK-6059,1 56814U 23078AZ  23304.55612101  .00000675  00000-0  64330-4 0  9995,2 56814  69.9990 353.0296 0003222 266.1619  93.9172 14.98344205 23844,6950.149,96.106,574.253,569.775,0.0
56814.0,STARLINK-6059,PAYLOAD,2023-10-31 21:21:34,14.98308674,0.0002924,69.9995,352.1887,274.0038,86.0787,-0.0016224,-0.00019387,0.0,0 STARLINK-6059,1 56814U 23078AZ  23304.88997921 -.00019387  00000-0 -16224-2 0  9996,2 56814  69.9995 352.1887 0002924 274.0038  86.0787 14.98308674 23896,6950.259,96.108,574.156,570.092,0.0
56814.0,STARLINK-6059,PAYLOAD,2023-11-01 03:45:59,14.98366362,0.000319,69.999,351.5147,260.8257,99.2541,0.0005371,6.327e-05,0.0,0 STARLINK-6059,1 56814U 23078AZ  23305.15693641  .00006327  00000-0  53710-3 0  9999,2 56814  69.9990 351.5147 0003190 260.8257  99.2541 14.98366362 24191,6950.08,96.105,574.163,569.728,0.0
56814.0,STARLINK-6059,PAYLOAD,2023-11-01 11:46:42,14.98326741,0.0003193,69.9991,350.6734,265.3277,94.7517,0.00018275,2.088e-05,0.0,0 STARLINK-6059,1 56814U 23078AZ  23305.49076893  .00002088  00000-0  18275-3 0  9997,2 56814  69.9991 350.6734 0003193 265.3277  94.7517 14.98326741 24245,6950.203,96.107,574.287,569.849,0.0
56814.0,STARLINK-6059,PAYLOAD,2023-11-01 13:22:50,14.98313281,0.0002959,69.9991,350.5047,259.4086,100.674,0.00047231,5.545e-05,0.0,0 STARLINK-6059,1 56814U 23078AZ  23305.55753044  .00005545  00000-0  47231-3 0  9999,2 56814  69.9991 350.5047 0002959 259.4086 100.6740 14.98313281 23993,6950.245,96.108,574.166,570.053,0.0
56814.0,STARLINK-6059,PAYLOAD,2023-11-01 19:47:21,14.98383455,0.0003492,69.9993,349.8315,273.774,86.302,-0.00082143,-9.894e-05,0.0,0 STARLINK-6059,1 56814U 23078AZ  23305.82455420 -.00009894  00000-0 -82143-3 0  9990,2 56814  69.9993 349.8315 0003492 273.7740  86.3020 14.98383455 24298,6950.028,96.104,574.32,569.466,0.0
56814.0,STARLINK-6059,PAYLOAD,2023-11-02 05:24:10,14.98335914,0.0003245,69.9994,348.8222,268.1268,91.9519,-4.3232e-05,-6.09e-06,0.0,0 STARLINK-6059,1 56814U 23078AZ  23306.22512654 -.00000609  00000-0 -43232-4 0  9990,2 56814  69.9994 348.8222 0003245 268.1268  91.9519 14.98335914 24353,6950.175,96.107,574.295,569.784,0.0
56814.0,STARLINK-6059,PAYLOAD,2023-11-02 11:48:42,14.98388396,0.0002311,69.9993,348.1484,265.7389,94.3506,-0.00088373,-0.00010637,0.0,0 STARLINK-6059,1 56814U 23078AZ  23306.49215388 -.00010637  00000-0 -88373-3 0  9999,2 56814  69.9993 348.1484 0002311 265.7389  94.3506 14.98388396 24394,6950.012,96.103,573.483,570.271,0.0
56814.0,STARLINK-6059,PAYLOAD,2023-11-02 13:24:49,14.98389212,0.0002377,69.9994,347.9806,264.5173,95.5715,-0.00086618,-0.00010428,0.0,0 STARLINK-6059,1 56814U 23078AZ  23306.55891035 -.00010428  00000-0 -86618-3 0  9993,2 56814  69.9994 347.9806 0002377 264.5173  95.5715 14.98389212 24146,6950.01,96.103,573.527,570.223,0.0
56814.0,STARLINK-6059,PAYLOAD,2023-11-02 19:49:23,14.98338023,0.0003094,69.9995,347.3069,267.4705,92.61,-0.00014413,-1.813e-05,0.0,0 STARLINK-6059,1 56814U 23078AZ  23306.82596479 -.00001813  00000-0 -14413-3 0  9999,2 56814  69.9995 347.3069 0003094 267.4705  92.6100 14.98338023 24445,6950.168,96.106,574.183,569.883,0.0
56814.0,STARLINK-6059,PAYLOAD,2023-11-03 03:50:04,14.9831445,0.0003035,69.9997,346.4651,271.745,88.3361,0.00018343,2.095e-05,0.0,0 STARLINK-6059,1 56814U 23078AZ  23307.15977074  .00002095  00000-0  18343-3 0  9997,2 56814  69.9997 346.4651 0003035 271.7450  88.3361 14.98314450 24498,6950.241,96.108,574.215,569.997,0.0
56814.0,STARLINK-6059,PAYLOAD,2023-11-03 10:14:36,14.98326162,0.0002786,70.0,345.7924,262.0408,98.0435,-3.4509e-05,-5.05e-06,0.0,0 STARLINK-6059,1 56814U 23078AZ  23307.42680912 -.00000505  00000-0 -34509-4 0  9998,2 56814  70.0000 345.7924 0002786 262.0408  98.0435 14.98326162 24537,6950.205,96.107,574.006,570.133,0.0
56814.0,STARLINK-6059,PAYLOAD,2023-11-03 11:50:44,14.9832561,0.0002778,69.9998,345.6239,261.4572,98.6272,-4.2368e-05,-5.98e-06,0.0,0 STARLINK-6059,1 56814U 23078AZ  23307.49356971 -.00000598  00000-0 -42368-4 0  9994,2 56814  69.9998 345.6239 0002778 261.4572  98.6272 14.98325610 24288,6950.206,96.107,574.002,570.141,0.0
56814.0,STARLINK-6059,PAYLOAD,2023-11-04 10:16:36,14.98331758,0.0002946,69.9993,343.2673,267.7713,92.3109,6.8618e-06,-1.1e-07,0.0,0 STARLINK-6059,1 56814U 23078AZ  23308.42820413 -.00000011  00000-0  68618-5 0  9991,2 56814  69.9993 343.2673 0002946 267.7713  92.3109 14.98331758 24686,6950.187,96.107,574.1,570.005,0.0
56814.0,STARLINK-6059,PAYLOAD,2023-11-04 11:52:44,14.98332983,0.0002958,69.9991,343.0984,267.7839,92.2982,1.3131e-05,6.4e-07,0.0,0 STARLINK-6059,1 56814U 23078AZ  23308.49496305  .00000064  00000-0  13131-4 0  9993,2 56814  69.9991 343.0984 0002958 267.7839  92.2982 14.98332983 24431,6950.184,96.107,574.105,569.993,0.0
56814.0,STARLINK-6059,PAYLOAD,2023-11-04 19:53:25,14.98331045,0.0002564,70.0005,342.2553,271.2932,88.7933,7.9556e-06,2e-08,0.0,0 STARLINK-6059,1 56814U 23078AZ  23308.82876514  .00000002  00000-0  79556-5 0  9990,2 56814  70.0005 342.2553 0002564 271.2932  88.7933 14.98331045 24489,6950.19,96.107,573.837,570.273,0.0
56814.0,STARLINK-6059,PAYLOAD,2023-11-05 11:54:45,14.98333913,0.0002883,69.9993,340.5729,266.0705,94.0125,0.00010109,1.113e-05,0.0,0 STARLINK-6059,1 56814U 23078AZ  23309.49635893  .00001113  00000-0  10109-3 0  9998,2 56814  69.9993 340.5729 0002883 266.0705  94.0125 14.98333913 24841,6950.181,96.107,574.05,570.042,0.0
